QZS-1R                  
1 49336U 21096A   24060.48660597 -.00000239  00000+0  00000+0 0  9993
2 49336  35.7167  92.1798 0748182 269.2463 104.9107  1.00297534  8601
